{"type": "FeatureCollection", "features": [ {"type": "Feature", "properties": {"norad_id": 44804, "name": "CARTOSAT-3", "group": "resource", "lat": -60.89956320378073, "lon": -141.8916429922435, "alt_km": 525.0723227103263, "timestamp": "2025-12-18T04:58:34.238382+00:00", "meta": {"OBJECT_NAME": "CARTOSAT-3", "OBJECT_ID": "2019-081A", "EPOCH": "2025-12-17T23:10:24.967200", "MEAN_MOTION": 15.19194609, "ECCENTRICITY": 0.00140035, "INCLINATION": 97.4586, "RA_OF_ASC_NODE": 51.4832, "ARG_OF_PERICENTER": 67.2043, "MEAN_ANOMALY": 293.0669, "EPHEMERIS_TYPE": 0, "CLASSIFICATION_TYPE": "U", "NORAD_CAT_ID": 44804, "ELEMENT_SET_NO": 999, "REV_AT_EPOCH": 33595, "BSTAR": 0.00015482105, "MEAN_MOTION_DOT": 3.197e-05, "MEAN_MOTION_DDOT": 0}, "tle": {"line1": "1 44804U 19081A   25351.96556675  .00003197  00000+0  15482-3 0  9996", "line2": "2 44804  97.4586  51.4832 0014003  67.2043 293.0669 15.19194609335959"}}, "geometry": {"type": "Point", "coordinates": [-141.8916429922435, -60.89956320378073]}}, {"type": "Feature", "properties": {"norad_id": 44819, "name": "GAOFEN-12 01", "group": "resource", "lat": -50.881505401401405, "lon": 8.064755134105601, "alt_km": 634.4419843661626, "timestamp": "2025-12-18T04:58:34.238392+00:00", "meta": {"OBJECT_NAME": "GAOFEN-12 01", "OBJECT_ID": "2019-082A", "EPOCH": "2025-12-18T00:20:34.723392", "MEAN_MOTION": 14.80663575, "ECCENTRICITY": 0.00016511, "INCLINATION": 97.8124, "RA_OF_ASC_NODE": 358.1569, "ARG_OF_PERICENTER": 205.6749, "MEAN_ANOMALY": 154.4382, "EPHEMERIS_TYPE": 0, "CLASSIFICATION_TYPE": "U", "NORAD_CAT_ID": 44819, "ELEMENT_SET_NO": 999, "REV_AT_EPOCH": 32728, "BSTAR": 6.1866598e-05, "MEAN_MOTION_DOT": 4.25e-06, "MEAN_MOTION_DDOT": 0}, "tle": {"line1": "1 44819U 19082A   25352.01429078  .00000425  00000+0  61867-4 0  9996", "line2": "2 44819  97.8124 358.1569 0001651 205.6749 154.4382 14.80663575327286"}}, "geometry": {"type": "Point", "coordinates": [8.064755134105601, -50.881505401401405]}}, {"type": "Feature", "properties": {"norad_id": 44873, "name": "CSG-1", "group": "resource", "lat": 82.03434029232527, "lon": 91.633812503704, "alt_km": 614.0422787877351, "timestamp": "2025-12-18T04:58:34.238402+00:00", "meta": {"OBJECT_NAME": "CSG-1", "OBJECT_ID": "2019-092A", "EPOCH": "2025-12-17T23:42:57.722112", "MEAN_MOTION": 14.8214737, "ECCENTRICITY": 0.00014965, "INCLINATION": 97.8803, "RA_OF_ASC_NODE": 173.2333, "ARG_OF_PERICENTER": 86.7838, "MEAN_ANOMALY": 273.3547, "EPHEMERIS_TYPE": 0, "CLASSIFICATION_TYPE": "U", "NORAD_CAT_ID": 44873, "ELEMENT_SET_NO": 999, "REV_AT_EPOCH": 32463, "BSTAR": 6.3233652e-05, "MEAN_MOTION_DOT": 4.51e-06, "MEAN_MOTION_DDOT": 0}, "tle": {"line1": "1 44873U 19092A   25351.98816808  .00000451  00000+0  63234-4 0  9992", "line2": "2 44873  97.8803 173.2333 0001496  86.7838 273.3547 14.82147370324631"}}, "geometry": {"type": "Point", "coordinates": [91.633812503704, 82.03434029232527]}}, {"type": "Feature", "properties": {"norad_id": 46277, "name": "NEMO-HD", "group": "resource", "lat": -47.75499485423452, "lon": 59.261648321765946, "alt_km": 451.8829523457016, "timestamp": "2025-12-18T04:58:34.238413+00:00", "meta": {"OBJECT_NAME": "NEMO-HD", "OBJECT_ID": "2020-061F", "EPOCH": "2025-12-17T22:56:57.283584", "MEAN_MOTION": 15.4043423, "ECCENTRICITY": 0.00015486, "INCLINATION": 97.2211, "RA_OF_ASC_NODE": 50.9882, "ARG_OF_PERICENTER": 52.073, "MEAN_ANOMALY": 308.0656, "EPHEMERIS_TYPE": 0, "CLASSIFICATION_TYPE": "U", "NORAD_CAT_ID": 46277, "ELEMENT_SET_NO": 999, "REV_AT_EPOCH": 29404, "BSTAR": 0.00021024885, "MEAN_MOTION_DOT": 8.427e-05, "MEAN_MOTION_DDOT": 0}, "tle": {"line1": "1 46277U 20061F   25351.95621856  .00008427  00000+0  21025-3 0  9996", "line2": "2 46277  97.2211  50.9882 0001548  52.0730 308.0656 15.40434230294040"}}, "geometry": {"type": "Point", "coordinates": [59.261648321765946, -47.75499485423452]}}, {"type": "Feature", "properties": {"norad_id": 46984, "name": "SENTINEL-6A", "group": "resource", "lat": 59.35183694759914, "lon": -77.67649376745099, "alt_km": 1336.6657953360454, "timestamp": "2025-12-18T04:58:34.238423+00:00", "meta": {"OBJECT_NAME": "SENTINEL-6A", "OBJECT_ID": "2020-086A", "EPOCH": "2025-12-17T20:54:36.077760", "MEAN_MOTION": 12.80930798, "ECCENTRICITY": 0.00077102, "INCLINATION": 66.0391, "RA_OF_ASC_NODE": 151.6495, "ARG_OF_PERICENTER": 269.2543, "MEAN_ANOMALY": 90.7589, "EPHEMERIS_TYPE": 0, "CLASSIFICATION_TYPE": "U", "NORAD_CAT_ID": 46984, "ELEMENT_SET_NO": 999, "REV_AT_EPOCH": 23710, "BSTAR": 5.0843884e-05, "MEAN_MOTION_DOT": -4.9e-07, "MEAN_MOTION_DDOT": 0}, "tle": {"line1": "1 46984U 20086A   25351.87125090 -.00000049  00000+0  50844-4 0  9993", "line2": "2 46984  66.0391 151.6495 0007710 269.2543  90.7589 12.80930798237103"}}, "geometry": {"type": "Point", "coordinates": [-77.67649376745099, 59.35183694759914]}}, {"type": "Feature", "properties": {"norad_id": 48079, "name": "GAOFEN-12 02", "group": "resource", "lat": -39.42789336487706, "lon": -7.1847595609528625, "alt_km": 635.2892180815261, "timestamp": "2025-12-18T04:58:34.238433+00:00", "meta": {"OBJECT_NAME": "GAOFEN-12 02", "OBJECT_ID": "2021-026A", "EPOCH": "2025-12-17T22:40:06.928896", "MEAN_MOTION": 14.806815, "ECCENTRICITY": 0.00035993, "INCLINATION": 97.9853, "RA_OF_ASC_NODE": 345.9259, "ARG_OF_PERICENTER": 90.7271, "MEAN_ANOMALY": 269.4353, "EPHEMERIS_TYPE": 0, "CLASSIFICATION_TYPE": "U", "NORAD_CAT_ID": 48079, "ELEMENT_SET_NO": 999, "REV_AT_EPOCH": 25494, "BSTAR": 6.3472256e-05, "MEAN_MOTION_DOT": 4.35e-06, "MEAN_MOTION_DDOT": 0}, "tle": {"line1": "1 48079U 21026A   25351.94452464  .00000435  00000+0  63472-4 0  9990", "line2": "2 48079  97.9853 345.9259 0003599  90.7271 269.4353 14.80681500254949"}}, "geometry": {"type": "Point", "coordinates": [-7.1847595609528625, -39.42789336487706]}}, {"type": "Feature", "properties": {"norad_id": 48268, "name": "PLEIADES NEO 3", "group": "resource", "lat": 46.054492959020315, "lon": 56.292705170215775, "alt_km": 619.353222681375, "timestamp": "2025-12-18T04:58:34.238443+00:00", "meta": {"OBJECT_NAME": "PLEIADES NEO 3", "OBJECT_ID": "2021-034A", "EPOCH": "2025-12-17T22:17:00.132864", "MEAN_MOTION": 14.81674946, "ECCENTRICITY": 0.00013386, "INCLINATION": 97.8948, "RA_OF_ASC_NODE": 64.2953, "ARG_OF_PERICENTER": 89.5493, "MEAN_ANOMALY": 270.5873, "EPHEMERIS_TYPE": 0, "CLASSIFICATION_TYPE": "U", "NORAD_CAT_ID": 48268, "ELEMENT_SET_NO": 999, "REV_AT_EPOCH": 25081, "BSTAR": 0.00012024331, "MEAN_MOTION_DOT": 8.94e-06, "MEAN_MOTION_DDOT": 0}, "tle": {"line1": "1 48268U 21034A   25351.92847376  .00000894  00000+0  12024-3 0  9992", "line2": "2 48268  97.8948  64.2953 0001338  89.5493 270.5873 14.81674946250815"}}, "geometry": {"type": "Point", "coordinates": [56.292705170215775, 46.054492959020315]}}, {"type": "Feature", "properties": {"norad_id": 49070, "name": "PLEIADES NEO 4", "group": "resource", "lat": -46.2885679410042, "lon": -123.77982344959018, "alt_km": 631.4355213267536, "timestamp": "2025-12-18T04:58:34.238454+00:00", "meta": {"OBJECT_NAME": "PLEIADES NEO 4", "OBJECT_ID": "2021-073E", "EPOCH": "2025-12-17T23:05:36.623616", "MEAN_MOTION": 14.81673153, "ECCENTRICITY": 0.00012044, "INCLINATION": 97.895, "RA_OF_ASC_NODE": 64.3247, "ARG_OF_PERICENTER": 92.7259, "MEAN_ANOMALY": 267.4091, "EPHEMERIS_TYPE": 0, "CLASSIFICATION_TYPE": "U", "NORAD_CAT_ID": 49070, "ELEMENT_SET_NO": 999, "REV_AT_EPOCH": 23453, "BSTAR": 1.0665849e-05, "MEAN_MOTION_DOT": 3.2e-07, "MEAN_MOTION_DDOT": 0}, "tle": {"line1": "1 49070U 21073E   25351.96222944  .00000032  00000+0  10666-4 0  9994", "line2": "2 49070  97.8950  64.3247 0001204  92.7259 267.4091 14.81673153234532"}}, "geometry": {"type": "Point", "coordinates": [-123.77982344959018, -46.2885679410042]}}, {"type": "Feature", "properties": {"norad_id": 49260, "name": "LANDSAT 9", "group": "resource", "lat": 58.34329204701866, "lon": -106.22059493439254, "alt_km": 696.2295761814166, "timestamp": "2025-12-18T04:58:34.238464+00:00", "meta": {"OBJECT_NAME": "LANDSAT 9", "OBJECT_ID": "2021-088A", "EPOCH": "2025-12-17T18:32:10.061088", "MEAN_MOTION": 14.5710312, "ECCENTRICITY": 0.00011204, "INCLINATION": 98.209, "RA_OF_ASC_NODE": 59.8104, "ARG_OF_PERICENTER": 90.3658, "MEAN_ANOMALY": 269.7669, "EPHEMERIS_TYPE": 0, "CLASSIFICATION_TYPE": "U", "NORAD_CAT_ID": 49260, "ELEMENT_SET_NO": 999, "REV_AT_EPOCH": 22458, "BSTAR": 8.9741562e-05, "MEAN_MOTION_DOT": 3.59e-06, "MEAN_MOTION_DDOT": 0}, "tle": {"line1": "1 49260U 21088A   25351.77233867  .00000359  00000+0  89742-4 0  9999", "line2": "2 49260  98.2090  59.8104 0001120  90.3658 269.7669 14.57103120224583"}}, "geometry": {"type": "Point", "coordinates": [-106.22059493439254, 58.34329204701866]}}, {"type": "Feature", "properties": {"norad_id": 51444, "name": "CSG-2", "group": "resource", "lat": -82.03622633779887, "lon": -88.45373384685533, "alt_km": 630.9320573189052, "timestamp": "2025-12-18T04:58:34.238474+00:00", "meta": {"OBJECT_NAME": "CSG-2", "OBJECT_ID": "2022-008A", "EPOCH": "2025-12-17T22:54:21.144096", "MEAN_MOTION": 14.82150918, "ECCENTRICITY": 0.00014811, "INCLINATION": 97.8801, "RA_OF_ASC_NODE": 173.1983, "ARG_OF_PERICENTER": 84.4753, "MEAN_ANOMALY": 275.6629, "EPHEMERIS_TYPE": 0, "CLASSIFICATION_TYPE": "U", "NORAD_CAT_ID": 51444, "ELEMENT_SET_NO": 999, "REV_AT_EPOCH": 20974, "BSTAR": 9.2846353e-05, "MEAN_MOTION_DOT": 6.87e-06, "MEAN_MOTION_DDOT": 0}, "tle": {"line1": "1 51444U 22008A   25351.95441139  .00000687  00000+0  92846-4 0  9995", "line2": "2 51444  97.8801 173.1983 0001481  84.4753 275.6629 14.82150918209748"}}, "geometry": {"type": "Point", "coordinates": [-88.45373384685533, -82.03622633779887]}}]}